[{"OBJECT_NAME":"STARLINK-32721","OBJECT_ID":"2024-251G","EPOCH":"2026-03-09T23:21:34.614720","MEAN_MOTION":15.30215784,"ECCENTRICITY":7.991e-5,"INCLINATION":53.159,"RA_OF_ASC_NODE":333.8584,"ARG_OF_PERICENTER":93.8735,"MEAN_ANOMALY":266.2357,"EPHEMERIS_TYPE":0,"CLASSIFICATION_TYPE":"U","NORAD_CAT_ID":62438,"ELEMENT_SET_NO":999,"REV_AT_EPOCH":6793,"BSTAR":0.0011678628,"MEAN_MOTION_DOT":0.00034407,"MEAN_MOTION_DDOT":0},{"OBJECT_NAME":"ARCSTONE","OBJECT_ID":"2025-135N","EPOCH":"2026-03-09T21:21:29.017152","MEAN_MOTION":15.28638458,"ECCENTRICITY":0.00041199,"INCLINATION":97.4495,"RA_OF_ASC_NODE":185.9194,"ARG_OF_PERICENTER":166.7863,"MEAN_ANOMALY":193.3485,"EPHEMERIS_TYPE":0,"CLASSIFICATION_TYPE":"U","NORAD_CAT_ID":64540,"ELEMENT_SET_NO":999,"REV_AT_EPOCH":3984,"BSTAR":0.00094899777,"MEAN_MOTION_DOT":0.00026427,"MEAN_MOTION_DDOT":0}]
